LEMUR-2-TARTIFLETTE     
1 66784U 25276DZ  26115.69072083  .00007134  00000+0  60213-3 0  9992
2 66784  97.5289 188.1458 0011750 322.2667  37.7731 14.98370646 22336
LEMUR-2-VUKASIN         
1 66785U 25276EA  26115.93052816  .00008406  00000+0  68544-3 0  9990
2 66785  97.5241 188.5662 0006229 306.4310  53.6339 14.99686903 22316
LEMUR-2-HOTSPUR-TOM     
1 66786U 25276EB  26115.74728156  .00006326  00000+0  53471-3 0  9999
2 66786  97.5264 188.1975 0012074 314.3676  45.6557 14.98351833 22271
LEMUR-2-MYRA            
1 66787U 25276EC  26115.75814971  .00006176  00000+0  50500-3 0  9995
2 66787  97.5308 188.3580 0010985 327.5398  32.5149 14.99654006 22351
LEMUR-2 FIKRETDENGIZ    
1 67363U 26004A   26115.95601578  .00005866  00000+0  64585-3 0  9998
2 67363  97.8025 115.3349 0007552 322.4535  37.6153 14.87917620 15519
LEMUR-2-CALLUM-K-J      
1 67364U 26004B   26115.96237344  .00001923  00000+0  21792-3 0  9999
2 67364  97.8065 115.3700 0007366 308.9975  51.0585 14.87518601 15521
LEMUR-2-MARIO-SOUSA     
1 67365U 26004C   26115.94558047  .00006048  00000+0  66306-3 0  9997
2 67365  97.8002 115.3230 0007122 324.0383  36.0354 14.88077105 15520
LEMUR-2-SONNENBLUME     
1 67367U 26004E   26115.87260099  .00003676  00000+0  40590-3 0  9999
2 67367  97.7991 115.2502 0006934 325.9719  34.1052 14.88039441 15516
LEMUR-2-WOBLER          
1 67368U 26004F   26115.93836765  .00005550  00000+0  60840-3 0  9999
2 67368  97.8049 115.3884 0006615 313.9321  46.1349 14.88119498 15522
LEMUR-2-GRAM-E-SUE      
1 67370U 26004H   26115.72831626  .00004434  00000+0  48634-3 0  9997
2 67370  97.7978 115.1179 0006076 331.4087  28.6795 14.88205960 15491
LEMUR-2-KATIE           
1 67387U 26004AA  26115.97049728  .00005129  00000+0  54151-3 0  9999
2 67387  97.8045 115.6505 0001232 259.5184 100.5894 14.89694076 15536
LEMUR-2-HCS-BAZUS       
1 67388U 26004AB  26115.96800952  .00003229  00000+0  34409-3 0  9996
2 67388  97.8027 115.6395 0000824 230.6352 129.4792 14.89586696 15532
