[{"OBJECT_NAME":"LEMUR-2-TARTIFLETTE","OBJECT_ID":"2025-276DZ","EPOCH":"2026-04-25T16:34:38.279712","MEAN_MOTION":14.98370646,"ECCENTRICITY":0.00117502,"INCLINATION":97.5289,"RA_OF_ASC_NODE":188.1458,"ARG_OF_PERICENTER":322.2667,"MEAN_ANOMALY":37.7731,"EPHEMERIS_TYPE":0,"CLASSIFICATION_TYPE":"U","NORAD_CAT_ID":66784,"ELEMENT_SET_NO":999,"REV_AT_EPOCH":2233,"BSTAR":0.0006021252,"MEAN_MOTION_DOT":7.134e-5,"MEAN_MOTION_DDOT":0},{"OBJECT_NAME":"LEMUR-2-VUKASIN","OBJECT_ID":"2025-276EA","EPOCH":"2026-04-25T22:19:57.633024","MEAN_MOTION":14.99686903,"ECCENTRICITY":0.00062292,"INCLINATION":97.5241,"RA_OF_ASC_NODE":188.5662,"ARG_OF_PERICENTER":306.431,"MEAN_ANOMALY":53.6339,"EPHEMERIS_TYPE":0,"CLASSIFICATION_TYPE":"U","NORAD_CAT_ID":66785,"ELEMENT_SET_NO":999,"REV_AT_EPOCH":2231,"BSTAR":0.00068543595,"MEAN_MOTION_DOT":8.406e-5,"MEAN_MOTION_DDOT":0},{"OBJECT_NAME":"LEMUR-2-HOTSPUR-TOM","OBJECT_ID":"2025-276EB","EPOCH":"2026-04-25T17:56:05.126784","MEAN_MOTION":14.98351833,"ECCENTRICITY":0.00120745,"INCLINATION":97.5264,"RA_OF_ASC_NODE":188.1975,"ARG_OF_PERICENTER":314.3676,"MEAN_ANOMALY":45.6557,"EPHEMERIS_TYPE":0,"CLASSIFICATION_TYPE":"U","NORAD_CAT_ID":66786,"ELEMENT_SET_NO":999,"REV_AT_EPOCH":2227,"BSTAR":0.00053470803,"MEAN_MOTION_DOT":6.326e-5,"MEAN_MOTION_DDOT":0},{"OBJECT_NAME":"LEMUR-2-MYRA","OBJECT_ID":"2025-276EC","EPOCH":"2026-04-25T18:11:44.134944","MEAN_MOTION":14.99654006,"ECCENTRICITY":0.00109855,"INCLINATION":97.5308,"RA_OF_ASC_NODE":188.358,"ARG_OF_PERICENTER":327.5398,"MEAN_ANOMALY":32.5149,"EPHEMERIS_TYPE":0,"CLASSIFICATION_TYPE":"U","NORAD_CAT_ID":66787,"ELEMENT_SET_NO":999,"REV_AT_EPOCH":2235,"BSTAR":0.00050499731,"MEAN_MOTION_DOT":6.176e-5,"MEAN_MOTION_DDOT":0},{"OBJECT_NAME":"LEMUR-2 FIKRETDENGIZ","OBJECT_ID":"2026-004A","EPOCH":"2026-04-25T22:56:39.763392","MEAN_MOTION":14.8791762,"ECCENTRICITY":0.00075526,"INCLINATION":97.8025,"RA_OF_ASC_NODE":115.3349,"ARG_OF_PERICENTER":322.4535,"MEAN_ANOMALY":37.6153,"EPHEMERIS_TYPE":0,"CLASSIFICATION_TYPE":"U","NORAD_CAT_ID":67363,"ELEMENT_SET_NO":999,"REV_AT_EPOCH":1551,"BSTAR":0.00064585444,"MEAN_MOTION_DOT":5.866e-5,"MEAN_MOTION_DDOT":0},{"OBJECT_NAME":"LEMUR-2-CALLUM-K-J","OBJECT_ID":"2026-004B","EPOCH":"2026-04-25T23:05:49.065216","MEAN_MOTION":14.87518601,"ECCENTRICITY":0.00073669,"INCLINATION":97.8065,"RA_OF_ASC_NODE":115.37,"ARG_OF_PERICENTER":308.9975,"MEAN_ANOMALY":51.0585,"EPHEMERIS_TYPE":0,"CLASSIFICATION_TYPE":"U","NORAD_CAT_ID":67364,"ELEMENT_SET_NO":999,"REV_AT_EPOCH":1552,"BSTAR":0.0002179232,"MEAN_MOTION_DOT":1.923e-5,"MEAN_MOTION_DDOT":0},{"OBJECT_NAME":"LEMUR-2-MARIO-SOUSA","OBJECT_ID":"2026-004C","EPOCH":"2026-04-25T22:41:38.152608","MEAN_MOTION":14.88077105,"ECCENTRICITY":0.00071227,"INCLINATION":97.8002,"RA_OF_ASC_NODE":115.323,"ARG_OF_PERICENTER":324.0383,"MEAN_ANOMALY":36.0354,"EPHEMERIS_TYPE":0,"CLASSIFICATION_TYPE":"U","NORAD_CAT_ID":67365,"ELEMENT_SET_NO":999,"REV_AT_EPOCH":1552,"BSTAR":0.00066305858,"MEAN_MOTION_DOT":6.048e-5,"MEAN_MOTION_DDOT":0},{"OBJECT_NAME":"LEMUR-2-SONNENBLUME","OBJECT_ID":"2026-004E","EPOCH":"2026-04-25T20:56:32.725536","MEAN_MOTION":14.88039441,"ECCENTRICITY":0.00069342,"INCLINATION":97.7991,"RA_OF_ASC_NODE":115.2502,"ARG_OF_PERICENTER":325.9719,"MEAN_ANOMALY":34.1052,"EPHEMERIS_TYPE":0,"CLASSIFICATION_TYPE":"U","NORAD_CAT_ID":67367,"ELEMENT_SET_NO":999,"REV_AT_EPOCH":1551,"BSTAR":0.00040589933,"MEAN_MOTION_DOT":3.676e-5,"MEAN_MOTION_DDOT":0},{"OBJECT_NAME":"LEMUR-2-WOBLER","OBJECT_ID":"2026-004F","EPOCH":"2026-04-25T22:31:14.964960","MEAN_MOTION":14.88119498,"ECCENTRICITY":0.00066153,"INCLINATION":97.8049,"RA_OF_ASC_NODE":115.3884,"ARG_OF_PERICENTER":313.9321,"MEAN_ANOMALY":46.1349,"EPHEMERIS_TYPE":0,"CLASSIFICATION_TYPE":"U","NORAD_CAT_ID":67368,"ELEMENT_SET_NO":999,"REV_AT_EPOCH":1552,"BSTAR":0.00060839902,"MEAN_MOTION_DOT":5.55e-5,"MEAN_MOTION_DDOT":0},{"OBJECT_NAME":"LEMUR-2-GRAM-E-SUE","OBJECT_ID":"2026-004H","EPOCH":"2026-04-25T17:28:46.524864","MEAN_MOTION":14.8820596,"ECCENTRICITY":0.00060767,"INCLINATION":97.7978,"RA_OF_ASC_NODE":115.1179,"ARG_OF_PERICENTER":331.4087,"MEAN_ANOMALY":28.6795,"EPHEMERIS_TYPE":0,"CLASSIFICATION_TYPE":"U","NORAD_CAT_ID":67370,"ELEMENT_SET_NO":999,"REV_AT_EPOCH":1549,"BSTAR":0.00048634249,"MEAN_MOTION_DOT":4.434e-5,"MEAN_MOTION_DDOT":0},{"OBJECT_NAME":"LEMUR-2-KATIE","OBJECT_ID":"2026-004AA","EPOCH":"2026-04-25T23:17:30.964992","MEAN_MOTION":14.89694076,"ECCENTRICITY":0.00012326,"INCLINATION":97.8045,"RA_OF_ASC_NODE":115.6505,"ARG_OF_PERICENTER":259.5184,"MEAN_ANOMALY":100.5894,"EPHEMERIS_TYPE":0,"CLASSIFICATION_TYPE":"U","NORAD_CAT_ID":67387,"ELEMENT_SET_NO":999,"REV_AT_EPOCH":1553,"BSTAR":0.00054150732,"MEAN_MOTION_DOT":5.129e-5,"MEAN_MOTION_DDOT":0},{"OBJECT_NAME":"LEMUR-2-HCS-BAZUS","OBJECT_ID":"2026-004AB","EPOCH":"2026-04-25T23:13:56.022528","MEAN_MOTION":14.89586696,"ECCENTRICITY":8.243e-5,"INCLINATION":97.8027,"RA_OF_ASC_NODE":115.6395,"ARG_OF_PERICENTER":230.6352,"MEAN_ANOMALY":129.4792,"EPHEMERIS_TYPE":0,"CLASSIFICATION_TYPE":"U","NORAD_CAT_ID":67388,"ELEMENT_SET_NO":999,"REV_AT_EPOCH":1553,"BSTAR":0.00034409447,"MEAN_MOTION_DOT":3.229e-5,"MEAN_MOTION_DDOT":0}]
